[{"OBJECT_NAME":"SDA_1672","OBJECT_ID":"2025-230J","EPOCH":"2026-03-09T22:13:49.529280","MEAN_MOTION":13.84978873,"ECCENTRICITY":0.000446,"INCLINATION":81.3012,"RA_OF_ASC_NODE":303.7625,"ARG_OF_PERICENTER":83.2945,"MEAN_ANOMALY":276.872,"EPHEMERIS_TYPE":0,"CLASSIFICATION_TYPE":"U","NORAD_CAT_ID":65982,"ELEMENT_SET_NO":999,"REV_AT_EPOCH":2007,"BSTAR":0.0002038919,"MEAN_MOTION_DOT":2.42e-6,"MEAN_MOTION_DDOT":0},{"OBJECT_NAME":"COSMOS 1375 DEB","OBJECT_ID":"1982-055S","EPOCH":"2026-03-09T03:15:00.328608","MEAN_MOTION":13.81657221,"ECCENTRICITY":0.00392435,"INCLINATION":65.835,"RA_OF_ASC_NODE":342.1191,"ARG_OF_PERICENTER":227.4567,"MEAN_ANOMALY":200.5755,"EPHEMERIS_TYPE":0,"CLASSIFICATION_TYPE":"U","NORAD_CAT_ID":16378,"ELEMENT_SET_NO":999,"REV_AT_EPOCH":3450,"BSTAR":0.00015925137,"MEAN_MOTION_DOT":8.9e-7,"MEAN_MOTION_DDOT":0}]
